<?xml version="1.0" encoding="UTF-8"?>
<kml xmlns="http://www.opengis.net/kml/2.2">
  <Document>
    <name>Piste_seville</name>
    <description/>
    <Style id="icon-1899-0288D1-nodesc-normal">
      <IconStyle>
        <color>ffd18802</color>
        <scale>1</scale>
        <Icon>
          <href>https://www.gstatic.com/mapspro/images/stock/503-wht-blank_maps.png</href>
        </Icon>
        <hotSpot x="32" xunits="pixels" y="64" yunits="insetPixels"/>
      </IconStyle>
      <LabelStyle>
        <scale>0</scale>
      </LabelStyle>
      <BalloonStyle>
        <text><![CDATA[<h3>$[name]</h3>]]></text>
      </BalloonStyle>
    </Style>
    <Style id="icon-1899-0288D1-nodesc-highlight">
      <IconStyle>
        <color>ffd18802</color>
        <scale>1</scale>
        <Icon>
          <href>https://www.gstatic.com/mapspro/images/stock/503-wht-blank_maps.png</href>
        </Icon>
        <hotSpot x="32" xunits="pixels" y="64" yunits="insetPixels"/>
      </IconStyle>
      <LabelStyle>
        <scale>1</scale>
      </LabelStyle>
      <BalloonStyle>
        <text><![CDATA[<h3>$[name]</h3>]]></text>
      </BalloonStyle>
    </Style>
    <StyleMap id="icon-1899-0288D1-nodesc">
      <Pair>
        <key>normal</key>
        <styleUrl>#icon-1899-0288D1-nodesc-normal</styleUrl>
      </Pair>
      <Pair>
        <key>highlight</key>
        <styleUrl>#icon-1899-0288D1-nodesc-highlight</styleUrl>
      </Pair>
    </StyleMap>
    <Style id="poly-000000-1200-77-nodesc-normal">
      <LineStyle>
        <color>ff000000</color>
        <width>1.2</width>
      </LineStyle>
      <PolyStyle>
        <color>4d000000</color>
        <fill>1</fill>
        <outline>1</outline>
      </PolyStyle>
      <BalloonStyle>
        <text><![CDATA[<h3>$[name]</h3>]]></text>
      </BalloonStyle>
    </Style>
    <Style id="poly-000000-1200-77-nodesc-highlight">
      <LineStyle>
        <color>ff000000</color>
        <width>1.8</width>
      </LineStyle>
      <PolyStyle>
        <color>4d000000</color>
        <fill>1</fill>
        <outline>1</outline>
      </PolyStyle>
      <BalloonStyle>
        <text><![CDATA[<h3>$[name]</h3>]]></text>
      </BalloonStyle>
    </Style>
    <StyleMap id="poly-000000-1200-77-nodesc">
      <Pair>
        <key>normal</key>
        <styleUrl>#poly-000000-1200-77-nodesc-normal</styleUrl>
      </Pair>
      <Pair>
        <key>highlight</key>
        <styleUrl>#poly-000000-1200-77-nodesc-highlight</styleUrl>
      </Pair>
    </StyleMap>
    <Folder>
      <name>Calque sans titre</name>
      <Placemark>
        <name>Point 1</name>
        <styleUrl>#icon-1899-0288D1-nodesc</styleUrl>
        <Point>
          <coordinates>
            2.795332,49.4024282,0
          </coordinates>
        </Point>
      </Placemark>
      <Placemark>
        <name>Point 2</name>
        <styleUrl>#icon-1899-0288D1-nodesc</styleUrl>
        <Point>
          <coordinates>
            2.7954353,49.4024596,0
          </coordinates>
        </Point>
      </Placemark>
      <Placemark>
        <name>Point 3</name>
        <styleUrl>#icon-1899-0288D1-nodesc</styleUrl>
        <Point>
          <coordinates>
            2.7955024,49.402464,0
          </coordinates>
        </Point>
      </Placemark>
      <Placemark>
        <name>Point 4</name>
        <styleUrl>#icon-1899-0288D1-nodesc</styleUrl>
        <Point>
          <coordinates>
            2.7955989,49.402457,0
          </coordinates>
        </Point>
      </Placemark>
      <Placemark>
        <name>Point 5</name>
        <styleUrl>#icon-1899-0288D1-nodesc</styleUrl>
        <Point>
          <coordinates>
            2.7956566,49.4024465,0
          </coordinates>
        </Point>
      </Placemark>
      <Placemark>
        <name>Point 6</name>
        <styleUrl>#icon-1899-0288D1-nodesc</styleUrl>
        <Point>
          <coordinates>
            2.795733,49.402436,0
          </coordinates>
        </Point>
      </Placemark>
      <Placemark>
        <name>Point 8</name>
        <styleUrl>#icon-1899-0288D1-nodesc</styleUrl>
        <Point>
          <coordinates>
            2.7958081,49.4024439,0
          </coordinates>
        </Point>
      </Placemark>
      <Placemark>
        <name>Point 9</name>
        <styleUrl>#icon-1899-0288D1-nodesc</styleUrl>
        <Point>
          <coordinates>
            2.7958678,49.4024691,0
          </coordinates>
        </Point>
      </Placemark>
      <Placemark>
        <name>Point 10</name>
        <styleUrl>#icon-1899-0288D1-nodesc</styleUrl>
        <Point>
          <coordinates>
            2.7959053,49.4025023,0
          </coordinates>
        </Point>
      </Placemark>
      <Placemark>
        <name>Point 11</name>
        <styleUrl>#icon-1899-0288D1-nodesc</styleUrl>
        <Point>
          <coordinates>
            2.7959254,49.4025573,0
          </coordinates>
        </Point>
      </Placemark>
      <Placemark>
        <name>Point 12</name>
        <styleUrl>#icon-1899-0288D1-nodesc</styleUrl>
        <Point>
          <coordinates>
            2.7959107,49.4026088,0
          </coordinates>
        </Point>
      </Placemark>
      <Placemark>
        <name>Point 13</name>
        <styleUrl>#icon-1899-0288D1-nodesc</styleUrl>
        <Point>
          <coordinates>
            2.7958637,49.4026515,0
          </coordinates>
        </Point>
      </Placemark>
      <Placemark>
        <name>Point 14</name>
        <styleUrl>#icon-1899-0288D1-nodesc</styleUrl>
        <Point>
          <coordinates>
            2.7958135,49.4026734,0
          </coordinates>
        </Point>
      </Placemark>
      <Placemark>
        <name>Point 15</name>
        <styleUrl>#icon-1899-0288D1-nodesc</styleUrl>
        <Point>
          <coordinates>
            2.7957497,49.4026865,0
          </coordinates>
        </Point>
      </Placemark>
      <Placemark>
        <name>Point 16</name>
        <styleUrl>#icon-1899-0288D1-nodesc</styleUrl>
        <Point>
          <coordinates>
            2.7956773,49.402676,0
          </coordinates>
        </Point>
      </Placemark>
      <Placemark>
        <name>Point 17</name>
        <styleUrl>#icon-1899-0288D1-nodesc</styleUrl>
        <Point>
          <coordinates>
            2.7956009,49.4026647,0
          </coordinates>
        </Point>
      </Placemark>
      <Placemark>
        <name>Point 18</name>
        <styleUrl>#icon-1899-0288D1-nodesc</styleUrl>
        <Point>
          <coordinates>
            2.7955359,49.4026394,0
          </coordinates>
        </Point>
      </Placemark>
      <Placemark>
        <name>Point 19</name>
        <styleUrl>#icon-1899-0288D1-nodesc</styleUrl>
        <Point>
          <coordinates>
            2.7954896,49.4025992,0
          </coordinates>
        </Point>
      </Placemark>
      <Placemark>
        <name>Point 20</name>
        <styleUrl>#icon-1899-0288D1-nodesc</styleUrl>
        <Point>
          <coordinates>
            2.7954118,49.4025381,0
          </coordinates>
        </Point>
      </Placemark>
      <Placemark>
        <name>Point 21</name>
        <styleUrl>#icon-1899-0288D1-nodesc</styleUrl>
        <Point>
          <coordinates>
            2.7952535,49.4024238,0
          </coordinates>
        </Point>
      </Placemark>
      <Placemark>
        <name>Point 22</name>
        <styleUrl>#icon-1899-0288D1-nodesc</styleUrl>
        <Point>
          <coordinates>
            2.7949142,49.402176,0
          </coordinates>
        </Point>
      </Placemark>
      <Placemark>
        <name>Point 23</name>
        <styleUrl>#icon-1899-0288D1-nodesc</styleUrl>
        <Point>
          <coordinates>
            2.7947801,49.4020756,0
          </coordinates>
        </Point>
      </Placemark>
      <Placemark>
        <name>Point 24</name>
        <styleUrl>#icon-1899-0288D1-nodesc</styleUrl>
        <Point>
          <coordinates>
            2.7946943,49.4020171,0
          </coordinates>
        </Point>
      </Placemark>
      <Placemark>
        <name>Point 25</name>
        <styleUrl>#icon-1899-0288D1-nodesc</styleUrl>
        <Point>
          <coordinates>
            2.7946573,49.4019717,0
          </coordinates>
        </Point>
      </Placemark>
      <Placemark>
        <name>Point 26</name>
        <styleUrl>#icon-1899-0288D1-nodesc</styleUrl>
        <Point>
          <coordinates>
            2.7946425,49.4019359,0
          </coordinates>
        </Point>
      </Placemark>
      <Placemark>
        <name>Point 27</name>
        <styleUrl>#icon-1899-0288D1-nodesc</styleUrl>
        <Point>
          <coordinates>
            2.7946541,49.4019037,0
          </coordinates>
        </Point>
      </Placemark>
      <Placemark>
        <name>Point 28</name>
        <styleUrl>#icon-1899-0288D1-nodesc</styleUrl>
        <Point>
          <coordinates>
            2.7946648,49.401874,0
          </coordinates>
        </Point>
      </Placemark>
      <Placemark>
        <name>Point 29</name>
        <styleUrl>#icon-1899-0288D1-nodesc</styleUrl>
        <Point>
          <coordinates>
            2.7946836,49.4018408,0
          </coordinates>
        </Point>
      </Placemark>
      <Placemark>
        <name>Point 30</name>
        <styleUrl>#icon-1899-0288D1-nodesc</styleUrl>
        <Point>
          <coordinates>
            2.7947157,49.4018112,0
          </coordinates>
        </Point>
      </Placemark>
      <Placemark>
        <name>Point 31</name>
        <styleUrl>#icon-1899-0288D1-nodesc</styleUrl>
        <Point>
          <coordinates>
            2.7947372,49.4017963,0
          </coordinates>
        </Point>
      </Placemark>
      <Placemark>
        <name>Point 32</name>
        <styleUrl>#icon-1899-0288D1-nodesc</styleUrl>
        <Point>
          <coordinates>
            2.7948048,49.4018146,0
          </coordinates>
        </Point>
      </Placemark>
      <Placemark>
        <name>Point 33</name>
        <styleUrl>#icon-1899-0288D1-nodesc</styleUrl>
        <Point>
          <coordinates>
            2.7948678,49.4018608,0
          </coordinates>
        </Point>
      </Placemark>
      <Placemark>
        <name>Point 34</name>
        <styleUrl>#icon-1899-0288D1-nodesc</styleUrl>
        <Point>
          <coordinates>
            2.7949048,49.4019115,0
          </coordinates>
        </Point>
      </Placemark>
      <Placemark>
        <name>Point 35</name>
        <styleUrl>#icon-1899-0288D1-nodesc</styleUrl>
        <Point>
          <coordinates>
            2.7948941,49.4019622,0
          </coordinates>
        </Point>
      </Placemark>
      <Placemark>
        <name>Point 36</name>
        <styleUrl>#icon-1899-0288D1-nodesc</styleUrl>
        <Point>
          <coordinates>
            2.7948753,49.4020058,0
          </coordinates>
        </Point>
      </Placemark>
      <Placemark>
        <name>Point 37</name>
        <styleUrl>#icon-1899-0288D1-nodesc</styleUrl>
        <Point>
          <coordinates>
            2.7948485,49.4020468,0
          </coordinates>
        </Point>
      </Placemark>
      <Placemark>
        <name>Point 38</name>
        <styleUrl>#icon-1899-0288D1-nodesc</styleUrl>
        <Point>
          <coordinates>
            2.7948303,49.4020537,0
          </coordinates>
        </Point>
      </Placemark>
      <Placemark>
        <name>Point 39</name>
        <styleUrl>#icon-1899-0288D1-nodesc</styleUrl>
        <Point>
          <coordinates>
            2.7949349,49.4021174,0
          </coordinates>
        </Point>
      </Placemark>
      <Placemark>
        <name>Point 40</name>
        <styleUrl>#icon-1899-0288D1-nodesc</styleUrl>
        <Point>
          <coordinates>
            2.7950738,49.4022292,0
          </coordinates>
        </Point>
      </Placemark>
      <Placemark>
        <name>Point 41</name>
        <styleUrl>#icon-1899-0288D1-nodesc</styleUrl>
        <Point>
          <coordinates>
            2.7952361,49.4023549,0
          </coordinates>
        </Point>
      </Placemark>
      <Placemark>
        <name>Rond_points_1</name>
        <styleUrl>#poly-000000-1200-77-nodesc</styleUrl>
        <Polygon>
          <outerBoundaryIs>
            <LinearRing>
              <tessellate>1</tessellate>
              <coordinates>
                2.7956255,49.402554,0
                2.7956536,49.4025139,0
                2.7956925,49.4024938,0
                2.7957421,49.4024851,0
                2.795773,49.4024877,0
                2.7958132,49.402499,0
                2.7958387,49.4025217,0
                2.7958508,49.4025435,0
                2.7958521,49.4025662,0
                2.7958427,49.4025907,0
                2.7958374,49.4026055,0
                2.7958025,49.4026247,0
                2.7957649,49.4026317,0
                2.7957234,49.4026369,0
                2.7956898,49.4026326,0
                2.7956643,49.4026221,0
                2.7956456,49.4026099,0
                2.7956389,49.4026003,0
                2.7956295,49.402575,0
                2.7956228,49.4025619,0
                2.7956255,49.402554,0
              </coordinates>
            </LinearRing>
          </outerBoundaryIs>
        </Polygon>
      </Placemark>
      <Placemark>
        <name>Polygone 45</name>
        <styleUrl>#poly-000000-1200-77-nodesc</styleUrl>
        <Polygon>
          <outerBoundaryIs>
            <LinearRing>
              <tessellate>1</tessellate>
              <coordinates>
                2.7955477,49.4025732,0
                2.7955235,49.402561,0
                2.7955034,49.4025505,0
                2.7954833,49.4025348,0
                2.7954578,49.4025209,0
                2.7954323,49.4025051,0
                2.7954538,49.4025086,0
                2.7954739,49.4025113,0
                2.7955074,49.4025113,0
                2.7955611,49.4025078,0
                2.7955624,49.4025156,0
                2.7955571,49.4025296,0
                2.7955477,49.4025409,0
                2.7955463,49.4025488,0
                2.7955477,49.4025732,0
              </coordinates>
            </LinearRing>
          </outerBoundaryIs>
        </Polygon>
      </Placemark>
      <Placemark>
        <name>Rond_points_2</name>
        <styleUrl>#poly-000000-1200-77-nodesc</styleUrl>
        <Polygon>
          <outerBoundaryIs>
            <LinearRing>
              <tessellate>1</tessellate>
              <coordinates>
                2.7947186,49.4018922,0
                2.7947401,49.4018756,0
                2.794783,49.4018678,0
                2.7948112,49.4018747,0
                2.794834,49.4018904,0
                2.7948474,49.401907,0
                2.794842,49.4019358,0
                2.7948259,49.4019489,0
                2.7948045,49.4019603,0
                2.7947723,49.4019611,0
                2.7947361,49.4019585,0
                2.7947119,49.4019454,0
                2.7947025,49.4019236,0
                2.7947106,49.4019018,0
                2.7947186,49.4018922,0
              </coordinates>
            </LinearRing>
          </outerBoundaryIs>
        </Polygon>
      </Placemark>
    </Folder>
  </Document>
</kml>
